{"norad_cat_id":"47792","object_name":"STARLINK-2334","object_id":"2021-018F","object_type":"PAYLOAD","country_code":"US","epoch":"2026-05-30T04:46:10.785216","creation_date":"2026-05-30T07:36:53","launch_date":"2021-03-11","decay_date":null,"inclination":53.1592,"eccentricity":0.0001098,"mean_motion":15.31713752,"period":94.012,"semimajor_axis":6848.836,"apoapsis":471.453,"periapsis":469.949,"tle_line0":"0 STARLINK-2334","tle_line1":"1 47792U 21018F   26150.19873594  .00001343  00000-0  55016-4 0  9993","tle_line2":"2 47792  53.1592 220.0192 0001098  84.9104 275.2023 15.31713752289258","fetched_at":"2026-05-30T16:18:06.042337+00:00"}
{"norad_cat_id":"53025","object_name":"STARLINK-4218","object_id":"2022-076AR","object_type":"PAYLOAD","country_code":"US","epoch":"2026-05-30T04:46:08.607072","creation_date":"2026-05-30T07:36:53","launch_date":"2022-07-07","decay_date":null,"inclination":53.2007,"eccentricity":0.0001525,"mean_motion":15.08838423,"period":95.438,"semimajor_axis":6917.885,"apoapsis":540.805,"periapsis":538.695,"tle_line0":"0 STARLINK-4218","tle_line1":"1 53025U 22076AR  26150.19871073  .00002179  00000-0  15498-3 0  9991","tle_line2":"2 53025  53.2007  78.2073 0001525  54.3798 305.7336 15.08838423215298","fetched_at":"2026-05-30T16:18:06.042337+00:00"}
{"norad_cat_id":"64050","object_name":"OBJECT C","object_id":"2025-103C","object_type":"UNKNOWN","country_code":"PRC","epoch":"2026-05-30T04:46:08.012640","creation_date":"2026-05-30T07:46:57","launch_date":"2025-05-17","decay_date":null,"inclination":97.3758,"eccentricity":0.0002208,"mean_motion":15.19803152,"period":94.749,"semimajor_axis":6884.572,"apoapsis":507.957,"periapsis":504.917,"tle_line0":"0 OBJECT C","tle_line1":"1 64050U 25103C   26150.19870385  .00005167  00000-0  24438-3 0  9994","tle_line2":"2 64050  97.3758 222.2444 0002208 194.4562 165.6611 15.19803152 57338","fetched_at":"2026-05-30T16:18:06.042337+00:00"}
{"norad_cat_id":"12666","object_name":"COSMOS 1275 DEB","object_id":"1981-053W","object_type":"DEBRIS","country_code":"CIS","epoch":"2026-05-30T04:46:07.488192","creation_date":"2026-05-30T07:36:53","launch_date":"1981-06-04","decay_date":null,"inclination":82.8726,"eccentricity":0.0066222,"mean_motion":13.74420686,"period":104.771,"semimajor_axis":7361.88,"apoapsis":1032.497,"periapsis":934.993,"tle_line0":"0 COSMOS 1275 DEB","tle_line1":"1 12666U 81053W   26150.19869778  .00000416  00000-0  41831-3 0  9998","tle_line2":"2 12666  82.8726 234.1612 0066222 303.1004  84.9098 13.74420686240616","fetched_at":"2026-05-30T16:18:06.042337+00:00"}
{"norad_cat_id":"66213","object_name":"STARLINK-34204","object_id":"2025-244H","object_type":"PAYLOAD","country_code":"US","epoch":"2026-05-30T04:46:06.129120","creation_date":"2026-05-30T07:26:56","launch_date":"2025-10-28","decay_date":null,"inclination":53.1579,"eccentricity":0.000253,"mean_motion":15.30193249,"period":94.106,"semimajor_axis":6853.372,"apoapsis":476.971,"periapsis":473.503,"tle_line0":"0 STARLINK-34204","tle_line1":"1 66213U 25244H   26150.19868205  .00032435  00000-0  11026-2 0  9997","tle_line2":"2 66213  53.1579 210.9757 0002530  80.2267 279.9019 15.30193249 34142","fetched_at":"2026-05-30T16:18:06.042337+00:00"}
{"norad_cat_id":"67254","object_name":"OBJECT G","object_id":"2025-313G","object_type":"UNKNOWN","country_code":"TBD","epoch":"2026-05-30T04:46:01.824672","creation_date":"2026-05-30T07:26:56","launch_date":"2025-12-28","decay_date":null,"inclination":97.0858,"eccentricity":0.0007889,"mean_motion":15.608016,"period":92.26,"semimajor_axis":6763.477,"apoapsis":390.678,"periapsis":380.007,"tle_line0":"0 OBJECT G","tle_line1":"1 67254U 25313G   26150.19863223  .00045303  00000-0  54245-3 0  9994","tle_line2":"2 67254  97.0858 227.7432 0007889 251.0389 109.0014 15.60801600 23805","fetched_at":"2026-05-30T16:18:06.042337+00:00"}
{"norad_cat_id":"18938","object_name":"COSMOS 1925","object_id":"1988-016B","object_type":"PAYLOAD","country_code":"CIS","epoch":"2026-05-30T04:45:59.466816","creation_date":"2026-05-30T07:36:53","launch_date":"1988-03-11","decay_date":null,"inclination":74.006,"eccentricity":0.00239,"mean_motion":12.46849157,"period":115.491,"semimajor_axis":7855.839,"apoapsis":1496.479,"periapsis":1458.928,"tle_line0":"0 COSMOS 1925","tle_line1":"1 18938U 88016B   26150.19860494 -.00000022  00000-0 -44663-4 0  9990","tle_line2":"2 18938  74.0060  75.9782 0023900 351.7825 161.2415 12.46849157739535","fetched_at":"2026-05-30T16:18:06.042337+00:00"}
{"norad_cat_id":"39013","object_name":"YAOGAN 16C","object_id":"2012-066C","object_type":"PAYLOAD","country_code":"PRC","epoch":"2026-05-30T04:45:55.279008","creation_date":"2026-05-30T07:26:56","launch_date":"2012-11-25","decay_date":null,"inclination":63.3555,"eccentricity":0.0434318,"mean_motion":13.45504369,"period":107.023,"semimajor_axis":7466.982,"apoapsis":1413.151,"periapsis":764.542,"tle_line0":"0 YAOGAN 16C","tle_line1":"1 39013U 12066C   26150.19855647  .00000045  00000-0  12942-3 0  9990","tle_line2":"2 39013  63.3555 335.9796 0434318  26.3181 335.9218 13.45504369663715","fetched_at":"2026-05-30T16:18:06.042337+00:00"}
{"norad_cat_id":"48678","object_name":"STARLINK-2615","object_id":"2021-044AS","object_type":"PAYLOAD","country_code":"US","epoch":"2026-05-30T04:45:51.772032","creation_date":"2026-05-30T07:36:53","launch_date":"2021-05-26","decay_date":null,"inclination":53.1605,"eccentricity":0.0005674,"mean_motion":15.31327627,"period":94.036,"semimajor_axis":6849.987,"apoapsis":475.739,"periapsis":467.966,"tle_line0":"0 STARLINK-2615","tle_line1":"1 48678U 21044AS  26150.19851588 -.00237160  00000-0 -79613-2 0  9992","tle_line2":"2 48678  53.1605  84.6729 0005674  85.0288 275.1361 15.31327627276450","fetched_at":"2026-05-30T16:18:06.042337+00:00"}
{"norad_cat_id":"66309","object_name":"TOMORROW-S9","object_id":"2025-248S","object_type":"PAYLOAD","country_code":"US","epoch":"2026-05-30T04:45:48.402432","creation_date":"2026-05-30T07:26:56","launch_date":"2025-11-02","decay_date":null,"inclination":45.4042,"eccentricity":0.0004505,"mean_motion":15.20339162,"period":94.716,"semimajor_axis":6882.954,"apoapsis":507.92,"periapsis":501.718,"tle_line0":"0 TOMORROW-S9","tle_line1":"1 66309U 25248S   26150.19847688  .00005844  00000-0  27648-3 0  9991","tle_line2":"2 66309  45.4042 218.2075 0004505 303.4113  56.6342 15.20339162 31775","fetched_at":"2026-05-30T16:18:06.042337+00:00"}
{"norad_cat_id":"46278","object_name":"GHGSAT-C1","object_id":"2020-061G","object_type":"PAYLOAD","country_code":"CA","epoch":"2026-05-30T04:45:44.947296","creation_date":"2026-05-30T07:36:53","launch_date":"2020-09-03","decay_date":null,"inclination":97.2112,"eccentricity":0.0002481,"mean_motion":15.70039809,"period":91.717,"semimajor_axis":6736.92,"apoapsis":360.457,"periapsis":357.114,"tle_line0":"0 GHGSAT-C1","tle_line1":"1 46278U 20061G   26150.19843689  .00045937  00000-0  38175-3 0  9993","tle_line2":"2 46278  97.2112 234.7473 0002481 111.4171 248.7356 15.70039809320655","fetched_at":"2026-05-30T16:18:06.042337+00:00"}
{"norad_cat_id":"447","object_name":"THOR ABLESTAR R/B","object_id":"1962-060B","object_type":"ROCKET BODY","country_code":"US","epoch":"2026-05-30T04:45:43.551072","creation_date":"2026-05-30T07:26:56","launch_date":"1962-10-31","decay_date":null,"inclination":50.1291,"eccentricity":0.0065813,"mean_motion":13.39173125,"period":107.529,"semimajor_axis":7490.498,"apoapsis":1161.66,"periapsis":1063.066,"tle_line0":"0 THOR ABLESTAR R/B","tle_line1":"1   447U 62060B   26150.19842073 -.00000086  00000-0  76566-4 0  9996","tle_line2":"2   447  50.1291 225.9993 0065813 125.0763 261.0382 13.39173125109660","fetched_at":"2026-05-30T16:18:06.042337+00:00"}
{"norad_cat_id":"38038","object_name":"ZY 1","object_id":"2011-079A","object_type":"PAYLOAD","country_code":"PRC","epoch":"2026-05-30T04:45:39.474720","creation_date":"2026-05-30T07:26:56","launch_date":"2011-12-22","decay_date":null,"inclination":98.4082,"eccentricity":0.0006548,"mean_motion":14.38198266,"period":100.125,"semimajor_axis":7142.595,"apoapsis":769.137,"periapsis":759.783,"tle_line0":"0 ZY 1","tle_line1":"1 38038U 11079A   26150.19837355  .00000427  00000-0  15464-3 0  9991","tle_line2":"2 38038  98.4082 217.8820 0006548  13.4986  61.8557 14.38198266756623","fetched_at":"2026-05-30T16:18:06.042337+00:00"}
{"norad_cat_id":"62426","object_name":"STARLINK-32676","object_id":"2024-249T","object_type":"PAYLOAD","country_code":"US","epoch":"2026-05-30T04:45:38.036160","creation_date":"2026-05-30T07:56:36","launch_date":"2024-12-23","decay_date":null,"inclination":42.9972,"eccentricity":0.0001092,"mean_motion":15.27595803,"period":94.266,"semimajor_axis":6861.139,"apoapsis":483.753,"periapsis":482.255,"tle_line0":"0 STARLINK-32676","tle_line1":"1 62426U 24249T   26150.19835690  .00024056  00000-0  88043-3 0  9999","tle_line2":"2 62426  42.9972 214.2450 0001092 271.4398  88.6328 15.27595803 80276","fetched_at":"2026-05-30T16:18:06.042337+00:00"}
{"norad_cat_id":"40143","object_name":"YAOGAN 21","object_id":"2014-053A","object_type":"PAYLOAD","country_code":"PRC","epoch":"2026-05-30T04:45:36.500832","creation_date":"2026-05-30T07:26:56","launch_date":"2014-09-08","decay_date":null,"inclination":97.1485,"eccentricity":0.0009278,"mean_motion":15.26078961,"period":94.359,"semimajor_axis":6865.684,"apoapsis":493.919,"periapsis":481.179,"tle_line0":"0 YAOGAN 21","tle_line1":"1 40143U 14053A   26150.19833913  .00011216  00000-0  43710-3 0  9995","tle_line2":"2 40143  97.1485 191.2095 0009278 146.2679 213.9152 15.26078961652210","fetched_at":"2026-05-30T16:18:06.042337+00:00"}
